[{"OBJECT_NAME":"STARLINK-36627","OBJECT_ID":"2026-020U","EPOCH":"2026-03-09T22:00:01.999584","MEAN_MOTION":15.68605288,"ECCENTRICITY":0.00014613,"INCLINATION":42.9998,"RA_OF_ASC_NODE":140.6895,"ARG_OF_PERICENTER":272.8635,"MEAN_ANOMALY":68.5573,"EPHEMERIS_TYPE":0,"CLASSIFICATION_TYPE":"U","NORAD_CAT_ID":67635,"ELEMENT_SET_NO":999,"REV_AT_EPOCH":604,"BSTAR":-0.018966671,"MEAN_MOTION_DOT":-0.01959305,"MEAN_MOTION_DDOT":0},{"OBJECT_NAME":"PEGASUS DEB","OBJECT_ID":"1994-029AGA","EPOCH":"2026-03-08T23:03:30.835584","MEAN_MOTION":15.53864705,"ECCENTRICITY":0.00172183,"INCLINATION":81.7949,"RA_OF_ASC_NODE":302.6073,"ARG_OF_PERICENTER":170.3356,"MEAN_ANOMALY":189.823,"EPHEMERIS_TYPE":0,"CLASSIFICATION_TYPE":"U","NORAD_CAT_ID":39927,"ELEMENT_SET_NO":999,"REV_AT_EPOCH":64162,"BSTAR":0.0015622309,"MEAN_MOTION_DOT":0.00102235,"MEAN_MOTION_DDOT":0}]
